ONEWEB-0652             
1 55814U 23029U   23241.91667824  .00000014  00000+0  00000+0 0  9997
2 55814  87.8329 133.2378 0001319 104.0751 149.9768 13.36096865 25728
ONEWEB-0653             
1 55815U 23029V   23241.91667824  .00000014  00000+0  00000+0 0  9998
2 55815  87.8304 133.1642 0002996 116.8643  98.4366 13.36858947 25750
ONEWEB-0654             
1 55816U 23029W   23241.91667824  .00000014  00000+0  00000+0 0  9999
2 55816  87.8508 133.2179 0003200 244.5458 158.1791 13.36072986 25785
ONEWEB-0656             
1 55817U 23029X   23241.91667824 -.00903278  00000+0 -25453+0 0  9995
2 55817  86.8359 123.2828 0002685  93.9432 131.8597 14.48865930 26464
ONEWEB-0660             
1 55820U 23029AA  23241.91667824  .00000014  00000+0  00000+0 0  9994
2 55820  87.8289 133.1963 0004066 137.6585 228.8576 13.37271588 25786
